[{"OBJECT_NAME":"STARLINK-5721","OBJECT_ID":"2023-020BA","EPOCH":"2026-03-09T04:20:15.296640","MEAN_MOTION":15.02544932,"ECCENTRICITY":0.00012828,"INCLINATION":43.0061,"RA_OF_ASC_NODE":354.3511,"ARG_OF_PERICENTER":274.3611,"MEAN_ANOMALY":85.7085,"EPHEMERIS_TYPE":0,"CLASSIFICATION_TYPE":"U","NORAD_CAT_ID":55617,"ELEMENT_SET_NO":999,"REV_AT_EPOCH":16899,"BSTAR":7.144668e-5,"MEAN_MOTION_DOT":7.62e-6,"MEAN_MOTION_DDOT":0},{"OBJECT_NAME":"LEMUR-2-ALISIA","OBJECT_ID":"2025-009DB","EPOCH":"2026-03-09T17:42:17.671392","MEAN_MOTION":15.01147598,"ECCENTRICITY":0.00065821,"INCLINATION":97.7037,"RA_OF_ASC_NODE":151.6973,"ARG_OF_PERICENTER":159.9869,"MEAN_ANOMALY":200.1615,"EPHEMERIS_TYPE":0,"CLASSIFICATION_TYPE":"U","NORAD_CAT_ID":62706,"ELEMENT_SET_NO":999,"REV_AT_EPOCH":8523,"BSTAR":0.00072005311,"MEAN_MOTION_DOT":9.177e-5,"MEAN_MOTION_DDOT":0}]
