STARLINK-5721           
1 55617U 23020BA  26068.18073260  .00000762  00000+0  71447-4 0  9991
2 55617  43.0061 354.3511 0001282 274.3611  85.7085 15.02544932168990
LEMUR-2-ALISIA          
1 62706U 25009DB  26068.73770453  .00009177  00000+0  72005-3 0  9995
2 62706  97.7037 151.6973 0006582 159.9869 200.1615 15.01147598 85230
